[{"OBJECT_NAME":"FENGYUN 1C DEB","OBJECT_ID":"1999-025ABG","EPOCH":"2026-04-04T03:58:42.871008","MEAN_MOTION":14.43264755,"ECCENTRICITY":0.00150705,"INCLINATION":98.909,"RA_OF_ASC_NODE":163.5975,"ARG_OF_PERICENTER":264.8436,"MEAN_ANOMALY":95.1033,"EPHEMERIS_TYPE":0,"CLASSIFICATION_TYPE":"U","NORAD_CAT_ID":30345,"ELEMENT_SET_NO":999,"REV_AT_EPOCH":99394,"BSTAR":0.0033326414,"MEAN_MOTION_DOT":0.00011205,"MEAN_MOTION_DDOT":0},{"OBJECT_NAME":"FENGYUN 1C DEB","OBJECT_ID":"1999-025ABH","EPOCH":"2026-04-04T06:45:17.072640","MEAN_MOTION":14.35439597,"ECCENTRICITY":0.0054503,"INCLINATION":98.8039,"RA_OF_ASC_NODE":198.1506,"ARG_OF_PERICENTER":54.9967,"MEAN_ANOMALY":328.9692,"EPHEMERIS_TYPE":0,"CLASSIFICATION_TYPE":"U","NORAD_CAT_ID":30346,"ELEMENT_SET_NO":999,"REV_AT_EPOCH":99027,"BSTAR":0.003255715,"MEAN_MOTION_DOT":9.48e-5,"MEAN_MOTION_DDOT":0},{"OBJECT_NAME":"FENGYUN 1C DEB","OBJECT_ID":"1999-025ABJ","EPOCH":"2026-04-04T05:42:50.566464","MEAN_MOTION":13.92838588,"ECCENTRICITY":0.01510262,"INCLINATION":98.3856,"RA_OF_ASC_NODE":272.5538,"ARG_OF_PERICENTER":80.7168,"MEAN_ANOMALY":93.1981,"EPHEMERIS_TYPE":0,"CLASSIFICATION_TYPE":"U","NORAD_CAT_ID":30347,"ELEMENT_SET_NO":999,"REV_AT_EPOCH":97526,"BSTAR":0.0003094512,"MEAN_MOTION_DOT":4.03e-6,"MEAN_MOTION_DDOT":0},{"OBJECT_NAME":"FENGYUN 1C DEB","OBJECT_ID":"1999-025ABK","EPOCH":"2026-04-04T06:48:38.592000","MEAN_MOTION":14.36444006,"ECCENTRICITY":0.00178624,"INCLINATION":98.8581,"RA_OF_ASC_NODE":197.1175,"ARG_OF_PERICENTER":49.666,"MEAN_ANOMALY":13.4904,"EPHEMERIS_TYPE":0,"CLASSIFICATION_TYPE":"U","NORAD_CAT_ID":30348,"ELEMENT_SET_NO":999,"REV_AT_EPOCH":99149,"BSTAR":0.0031373095,"MEAN_MOTION_DOT":9.179e-5,"MEAN_MOTION_DDOT":0},{"OBJECT_NAME":"FENGYUN 1C DEB","OBJECT_ID":"1999-025ABL","EPOCH":"2026-04-03T21:04:31.279584","MEAN_MOTION":14.11981941,"ECCENTRICITY":0.00891122,"INCLINATION":98.5947,"RA_OF_ASC_NODE":56.5404,"ARG_OF_PERICENTER":52.4323,"MEAN_ANOMALY":2.3061,"EPHEMERIS_TYPE":0,"CLASSIFICATION_TYPE":"U","NORAD_CAT_ID":30349,"ELEMENT_SET_NO":999,"REV_AT_EPOCH":97813,"BSTAR":0.0035477113,"MEAN_MOTION_DOT":6.703e-5,"MEAN_MOTION_DDOT":0},{"OBJECT_NAME":"FENGYUN 1C DEB","OBJECT_ID":"1999-025ABM","EPOCH":"2026-04-04T09:39:52.223328","MEAN_MOTION":13.83088713,"ECCENTRICITY":0.02180126,"INCLINATION":98.1053,"RA_OF_ASC_NODE":262.2082,"ARG_OF_PERICENTER":358.2663,"MEAN_ANOMALY":69.6215,"EPHEMERIS_TYPE":0,"CLASSIFICATION_TYPE":"U","NORAD_CAT_ID":30350,"ELEMENT_SET_NO":999,"REV_AT_EPOCH":96539,"BSTAR":0.0007050632,"MEAN_MOTION_DOT":8.9e-6,"MEAN_MOTION_DDOT":0},{"OBJECT_NAME":"FENGYUN 1C DEB","OBJECT_ID":"1999-025ABP","EPOCH":"2026-04-04T00:00:31.192128","MEAN_MOTION":14.07673513,"ECCENTRICITY":0.0028393,"INCLINATION":98.7553,"RA_OF_ASC_NODE":116.7039,"ARG_OF_PERICENTER":3.9449,"MEAN_ANOMALY":15.7122,"EPHEMERIS_TYPE":0,"CLASSIFICATION_TYPE":"U","NORAD_CAT_ID":30352,"ELEMENT_SET_NO":999,"REV_AT_EPOCH":98490,"BSTAR":0.00034395871,"MEAN_MOTION_DOT":5.41e-6,"MEAN_MOTION_DDOT":0},{"OBJECT_NAME":"FENGYUN 1C DEB","OBJECT_ID":"1999-025ABS","EPOCH":"2026-04-04T12:50:16.685376","MEAN_MOTION":14.19182786,"ECCENTRICITY":0.00530416,"INCLINATION":98.5906,"RA_OF_ASC_NODE":100.4127,"ARG_OF_PERICENTER":344.9475,"MEAN_ANOMALY":141.2046,"EPHEMERIS_TYPE":0,"CLASSIFICATION_TYPE":"U","NORAD_CAT_ID":30355,"ELEMENT_SET_NO":999,"REV_AT_EPOCH":98950,"BSTAR":0.0010841036,"MEAN_MOTION_DOT":2.26e-5,"MEAN_MOTION_DDOT":0},{"OBJECT_NAME":"FENGYUN 1C DEB","OBJECT_ID":"1999-025ABT","EPOCH":"2026-04-03T23:02:35.730528","MEAN_MOTION":14.13371676,"ECCENTRICITY":0.00517363,"INCLINATION":98.6893,"RA_OF_ASC_NODE":90.8968,"ARG_OF_PERICENTER":330.2313,"MEAN_ANOMALY":83.8288,"EPHEMERIS_TYPE":0,"CLASSIFICATION_TYPE":"U","NORAD_CAT_ID":30356,"ELEMENT_SET_NO":999,"REV_AT_EPOCH":98606,"BSTAR":0.0011019375,"MEAN_MOTION_DOT":2.053e-5,"MEAN_MOTION_DDOT":0},{"OBJECT_NAME":"FENGYUN 1C DEB","OBJECT_ID":"1999-025ABU","EPOCH":"2026-04-04T15:18:53.803008","MEAN_MOTION":14.05322457,"ECCENTRICITY":0.0049587,"INCLINATION":98.793,"RA_OF_ASC_NODE":123.5693,"ARG_OF_PERICENTER":14.0304,"MEAN_ANOMALY":105.0581,"EPHEMERIS_TYPE":0,"CLASSIFICATION_TYPE":"U","NORAD_CAT_ID":30357,"ELEMENT_SET_NO":999,"REV_AT_EPOCH":98392,"BSTAR":7.1155e-5,"MEAN_MOTION_DOT":7.4e-7,"MEAN_MOTION_DDOT":0},{"OBJECT_NAME":"FENGYUN 1C DEB","OBJECT_ID":"1999-025ABV","EPOCH":"2026-04-04T11:49:05.312640","MEAN_MOTION":14.21477626,"ECCENTRICITY":0.00816341,"INCLINATION":98.5576,"RA_OF_ASC_NODE":285.1163,"ARG_OF_PERICENTER":231.6035,"MEAN_ANOMALY":183.8466,"EPHEMERIS_TYPE":0,"CLASSIFICATION_TYPE":"U","NORAD_CAT_ID":30358,"ELEMENT_SET_NO":999,"REV_AT_EPOCH":98519,"BSTAR":0.0022397957,"MEAN_MOTION_DOT":5.028e-5,"MEAN_MOTION_DDOT":0},{"OBJECT_NAME":"FENGYUN 1C DEB","OBJECT_ID":"1999-025ABW","EPOCH":"2026-04-04T00:55:36.568416","MEAN_MOTION":13.94864764,"ECCENTRICITY":0.01435075,"INCLINATION":101.6242,"RA_OF_ASC_NODE":313.5666,"ARG_OF_PERICENTER":62.8735,"MEAN_ANOMALY":298.6971,"EPHEMERIS_TYPE":0,"CLASSIFICATION_TYPE":"U","NORAD_CAT_ID":30359,"ELEMENT_SET_NO":999,"REV_AT_EPOCH":96634,"BSTAR":0.0034408119,"MEAN_MOTION_DOT":4.975e-5,"MEAN_MOTION_DDOT":0},{"OBJECT_NAME":"FENGYUN 1C DEB","OBJECT_ID":"1999-025ABX","EPOCH":"2026-04-04T03:56:08.378304","MEAN_MOTION":14.27344446,"ECCENTRICITY":0.00318307,"INCLINATION":98.751,"RA_OF_ASC_NODE":168.8884,"ARG_OF_PERICENTER":177.0237,"MEAN_ANOMALY":237.3372,"EPHEMERIS_TYPE":0,"CLASSIFICATION_TYPE":"U","NORAD_CAT_ID":30360,"ELEMENT_SET_NO":999,"REV_AT_EPOCH":99028,"BSTAR":0.00246079,"MEAN_MOTION_DOT":6.02e-5,"MEAN_MOTION_DDOT":0},{"OBJECT_NAME":"FENGYUN 1C DEB","OBJECT_ID":"1999-025ABY","EPOCH":"2026-04-04T15:49:02.642304","MEAN_MOTION":14.25900756,"ECCENTRICITY":0.0066149,"INCLINATION":98.5538,"RA_OF_ASC_NODE":132.9763,"ARG_OF_PERICENTER":62.1009,"MEAN_ANOMALY":298.6849,"EPHEMERIS_TYPE":0,"CLASSIFICATION_TYPE":"U","NORAD_CAT_ID":30361,"ELEMENT_SET_NO":999,"REV_AT_EPOCH":99225,"BSTAR":0.0015132,"MEAN_MOTION_DOT":3.647e-5,"MEAN_MOTION_DDOT":0},{"OBJECT_NAME":"FENGYUN 1C DEB","OBJECT_ID":"1999-025ABZ","EPOCH":"2026-04-03T17:36:57.831552","MEAN_MOTION":14.12832865,"ECCENTRICITY":0.00953833,"INCLINATION":99.0528,"RA_OF_ASC_NODE":22.6483,"ARG_OF_PERICENTER":27.2275,"MEAN_ANOMALY":333.3851,"EPHEMERIS_TYPE":0,"CLASSIFICATION_TYPE":"U","NORAD_CAT_ID":30362,"ELEMENT_SET_NO":999,"REV_AT_EPOCH":97749,"BSTAR":0.0039146715,"MEAN_MOTION_DOT":7.56e-5,"MEAN_MOTION_DDOT":0},{"OBJECT_NAME":"FENGYUN 1C DEB","OBJECT_ID":"1999-025ACA","EPOCH":"2026-04-03T03:43:53.297472","MEAN_MOTION":14.17628214,"ECCENTRICITY":0.00802099,"INCLINATION":99.0187,"RA_OF_ASC_NODE":170.9904,"ARG_OF_PERICENTER":83.3252,"MEAN_ANOMALY":277.7043,"EPHEMERIS_TYPE":0,"CLASSIFICATION_TYPE":"U","NORAD_CAT_ID":30363,"ELEMENT_SET_NO":999,"REV_AT_EPOCH":98402,"BSTAR":0.0022783653,"MEAN_MOTION_DOT":4.74e-5,"MEAN_MOTION_DDOT":0}]
