FENGYUN 1C DEB          
1 30345U 99025ABG 26094.16577397  .00011205  00000+0  33326-2 0  9993
2 30345  98.9090 163.5975 0015070 264.8436  95.1033 14.43264755993940
FENGYUN 1C DEB          
1 30346U 99025ABH 26094.28144760  .00009480  00000+0  32557-2 0  9998
2 30346  98.8039 198.1506 0054503  54.9967 328.9692 14.35439597990278
FENGYUN 1C DEB          
1 30347U 99025ABJ 26094.23808526  .00000403  00000+0  30945-3 0  9997
2 30347  98.3856 272.5538 0151026  80.7168  93.1981 13.92838588975260
FENGYUN 1C DEB          
1 30348U 99025ABK 26094.28378000  .00009179  00000+0  31373-2 0  9996
2 30348  98.8581 197.1175 0017862  49.6660  13.4904 14.36444006991490
FENGYUN 1C DEB          
1 30349U 99025ABL 26093.87813981  .00006703  00000+0  35477-2 0  9992
2 30349  98.5947  56.5404 0089112  52.4323   2.3061 14.11981941978136
FENGYUN 1C DEB          
1 30350U 99025ABM 26094.40268777  .00000890  00000+0  70506-3 0  9995
2 30350  98.1053 262.2082 0218012 358.2663  69.6215 13.83088713965391
FENGYUN 1C DEB          
1 30352U 99025ABP 26094.00036102  .00000541  00000+0  34396-3 0  9998
2 30352  98.7553 116.7039 0028393   3.9449  15.7122 14.07673513984908
FENGYUN 1C DEB          
1 30355U 99025ABS 26094.53491534  .00002260  00000+0  10841-2 0  9991
2 30355  98.5906 100.4127 0053041 344.9475 141.2046 14.19182786989505
FENGYUN 1C DEB          
1 30356U 99025ABT 26093.96013577  .00002053  00000+0  11019-2 0  9993
2 30356  98.6893  90.8968 0051736 330.2313  83.8288 14.13371676986064
FENGYUN 1C DEB          
1 30357U 99025ABU 26094.63812272  .00000074  00000+0  71155-4 0  9998
2 30357  98.7930 123.5693 0049587  14.0304 105.0581 14.05322457983924
FENGYUN 1C DEB          
1 30358U 99025ABV 26094.49242260  .00005028  00000+0  22398-2 0  9994
2 30358  98.5576 285.1163 0081634 231.6035 183.8466 14.21477626985197
FENGYUN 1C DEB          
1 30359U 99025ABW 26094.03861769  .00004975  00000+0  34408-2 0  9991
2 30359 101.6242 313.5666 0143507  62.8735 298.6971 13.94864764966341
FENGYUN 1C DEB          
1 30360U 99025ABX 26094.16398586  .00006020  00000+0  24608-2 0  9993
2 30360  98.7510 168.8884 0031830 177.0237 237.3372 14.27344446990283
FENGYUN 1C DEB          
1 30361U 99025ABY 26094.65905836  .00003647  00000+0  15132-2 0  9994
2 30361  98.5538 132.9763 0066149  62.1009 298.6849 14.25900756992250
FENGYUN 1C DEB          
1 30362U 99025ABZ 26093.73400268  .00007560  00000+0  39147-2 0  9992
2 30362  99.0528  22.6483 0095383  27.2275 333.3851 14.12832865977499
FENGYUN 1C DEB          
1 30363U 99025ACA 26093.15547798  .00004740  00000+0  22784-2 0  9995
2 30363  99.0187 170.9904 0080209  83.3252 277.7043 14.17628214984022
